STARLINK-32460          
1 61914U 24207C   26068.01416227  .00028675  00000+0  10471-2 0  9993
2 61914  43.0002 285.1359 0001700 273.0231  87.0426 15.27590764 74623
FLOCK 4G-21             
1 62651U 25009AU  26068.19487675  .00013648  00000+0  49619-3 0  9998
2 62651  97.4032 151.1274 0000465 329.5782  30.5431 15.28381075 63677
